[
    {
        "Altitude(m)": 564598.5792585864,
        "Argument of Periapsis(deg)": 0.019868973332140504,
        "Eccentricity": 0.0,
        "Inclination(deg)": 53.0,
        "Latitude(deg)": -35.316363574238096,
        "Longitude(deg)": 40.54993711612909,
        "Mean Anomaly(deg)": -46.0888213972672,
        "RAAN(deg)": 174.97043010558406,
        "Satellite Name": "Starlink Shell 1 787",
        "Satellite Number": 787,
        "Semi-Major Axis(m)": 6931778.249405717,
        "Time(s)": 570
    },
    {
        "Altitude(m)": 564425.903664654,
        "Argument of Periapsis(deg)": 0.02021755181165174,
        "Eccentricity": 0.0,
        "Inclination(deg)": 53.0,
        "Latitude(deg)": -34.89035146353406,
        "Longitude(deg)": 41.06884057821145,
        "Mean Anomaly(deg)": -45.46199019371054,
        "RAAN(deg)": 174.96991133550657,
        "Satellite Name": "Starlink Shell 1 787",
        "Satellite Number": 787,
        "Semi-Major Axis(m)": 6931778.249405717,
        "Time(s)": 580
    },
    {
        "Altitude(m)": 564252.6572008032,
        "Argument of Periapsis(deg)": 0.020566130291162974,
        "Eccentricity": 0.0,
        "Inclination(deg)": 53.0,
        "Latitude(deg)": -34.461742812611774,
        "Longitude(deg)": 41.5819938219372,
        "Mean Anomaly(deg)": -44.83515899015379,
        "RAAN(deg)": 174.96939256542913,
        "Satellite Name": "Starlink Shell 1 787",
        "Satellite Number": 787,
        "Semi-Major Axis(m)": 6931778.249405717,
        "Time(s)": 590
    },
    {
        "Altitude(m)": 564078.9061257591,
        "Argument of Periapsis(deg)": 0.020914708770674213,
        "Eccentricity": 0.0,
        "Inclination(deg)": 53.0,
        "Latitude(deg)": -34.030603127643346,
        "Longitude(deg)": 42.08951263413275,
        "Mean Anomaly(deg)": -44.208327786597046,
        "RAAN(deg)": 174.96887379535164,
        "Satellite Name": "Starlink Shell 1 787",
        "Satellite Number": 787,
        "Semi-Major Axis(m)": 6931778.249405717,
        "Time(s)": 600
    },
    {
        "Altitude(m)": 563904.7167780797,
        "Argument of Periapsis(deg)": 0.021263287250185448,
        "Eccentricity": 0.0,
        "Inclination(deg)": 53.0,
        "Latitude(deg)": -33.59699644102975,
        "Longitude(deg)": 42.59151194700039,
        "Mean Anomaly(deg)": -43.581496583040355,
        "RAAN(deg)": 174.96835502527415,
        "Satellite Name": "Starlink Shell 1 787",
        "Satellite Number": 787,
        "Semi-Major Axis(m)": 6931778.249405717,
        "Time(s)": 610
    },
    {
        "Altitude(m)": 563730.1555465014,
        "Argument of Periapsis(deg)": 0.021611865729696686,
        "Eccentricity": 0.0,
        "Inclination(deg)": 53.0,
        "Latitude(deg)": -33.160985343349,
        "Longitude(deg)": 43.088106271802495,
        "Mean Anomaly(deg)": -42.95466537948361,
        "RAAN(deg)": 174.9678362551967,
        "Satellite Name": "Starlink Shell 1 787",
        "Satellite Number": 787,
        "Semi-Major Axis(m)": 6931778.249405717,
        "Time(s)": 620
    },
    {
        "Altitude(m)": 563555.2888402598,
        "Argument of Periapsis(deg)": 0.02196044420920792,
        "Eccentricity": 0.0,
        "Inclination(deg)": 53.0,
        "Latitude(deg)": -32.72263101555786,
        "Longitude(deg)": 43.5794084592349,
        "Mean Anomaly(deg)": -42.32783417592697,
        "RAAN(deg)": 174.96731748511922,
        "Satellite Name": "Starlink Shell 1 787",
        "Satellite Number": 787,
        "Semi-Major Axis(m)": 6931778.249405717,
        "Time(s)": 630
    },
    {
        "Altitude(m)": 563380.183059396,
        "Argument of Periapsis(deg)": 0.02230902268871916,
        "Eccentricity": 0.0,
        "Inclination(deg)": 53.0,
        "Latitude(deg)": -32.28199326134479,
        "Longitude(deg)": 44.0655309884386,
        "Mean Anomaly(deg)": -41.70100297237029,
        "RAAN(deg)": 174.96679871504173,
        "Satellite Name": "Starlink Shell 1 787",
        "Satellite Number": 787,
        "Semi-Major Axis(m)": 6931778.249405717,
        "Time(s)": 640
    },
    {
        "Altitude(m)": 563204.9045650454,
        "Argument of Periapsis(deg)": 0.022657601168230398,
        "Eccentricity": 0.0,
        "Inclination(deg)": 53.0,
        "Latitude(deg)": -31.839130539556397,
        "Longitude(deg)": 44.54658474128177,
        "Mean Anomaly(deg)": -41.07417176881354,
        "RAAN(deg)": 174.96627994496427,
        "Satellite Name": "Starlink Shell 1 787",
        "Satellite Number": 787,
        "Semi-Major Axis(m)": 6931778.249405717,
        "Time(s)": 650
    },
    {
        "Altitude(m)": 563029.5196497281,
        "Argument of Periapsis(deg)": 0.023006179647741636,
        "Eccentricity": 0.0,
        "Inclination(deg)": 53.0,
        "Latitude(deg)": -31.394099996612884,
        "Longitude(deg)": 45.02267946389969,
        "Mean Anomaly(deg)": -40.44734056525687,
        "RAAN(deg)": 174.9657611748868,
        "Satellite Name": "Starlink Shell 1 787",
        "Satellite Number": 787,
        "Semi-Major Axis(m)": 6931778.249405717,
        "Time(s)": 660
    },
    {
        "Altitude(m)": 562854.0945076841,
        "Argument of Periapsis(deg)": 0.023354758127252868,
        "Eccentricity": 0.0,
        "Inclination(deg)": 53.0,
        "Latitude(deg)": -30.946957498843403,
        "Longitude(deg)": 45.49392423410656,
        "Mean Anomaly(deg)": -39.820509361700005,
        "RAAN(deg)": 174.96524240480932,
        "Satellite Name": "Starlink Shell 1 787",
        "Satellite Number": 787,
        "Semi-Major Axis(m)": 6931778.249405717,
        "Time(s)": 670
    },
    {
        "Altitude(m)": 562678.6952052108,
        "Argument of Periapsis(deg)": 0.023703336606764106,
        "Eccentricity": 0.0,
        "Inclination(deg)": 53.0,
        "Latitude(deg)": -30.497757664682663,
        "Longitude(deg)": 45.96042642140518,
        "Mean Anomaly(deg)": -39.193678158143356,
        "RAAN(deg)": 174.96472363473185,
        "Satellite Name": "Starlink Shell 1 787",
        "Satellite Number": 787,
        "Semi-Major Axis(m)": 6931778.249405717,
        "Time(s)": 680
    },
    {
        "Altitude(m)": 562503.3876510621,
        "Argument of Periapsis(deg)": 0.024051915086275345,
        "Eccentricity": 0.0,
        "Inclination(deg)": 53.0,
        "Latitude(deg)": -30.046553896663912,
        "Longitude(deg)": 46.42229216496664,
        "Mean Anomaly(deg)": -38.56684695458671,
        "RAAN(deg)": 174.9642048646544,
        "Satellite Name": "Starlink Shell 1 787",
        "Satellite Number": 787,
        "Semi-Major Axis(m)": 6931778.249405717,
        "Time(s)": 690
    },
    {
        "Altitude(m)": 562328.2375669195,
        "Argument of Periapsis(deg)": 0.024400493565786583,
        "Eccentricity": 0.0,
        "Inclination(deg)": 53.0,
        "Latitude(deg)": -29.593398413163733,
        "Longitude(deg)": 46.879626856342995,
        "Mean Anomaly(deg)": -37.94001575102994,
        "RAAN(deg)": 174.9636860945769,
        "Satellite Name": "Starlink Shell 1 787",
        "Satellite Number": 787,
        "Semi-Major Axis(m)": 6931778.249405717,
        "Time(s)": 700
    },
    {
        "Altitude(m)": 562153.3104579279,
        "Argument of Periapsis(deg)": 0.024749072045297815,
        "Eccentricity": 0.0,
        "Inclination(deg)": 53.0,
        "Latitude(deg)": -29.13834227985384,
        "Longitude(deg)": 47.33253411370347,
        "Mean Anomaly(deg)": -37.31318454747327,
        "RAAN(deg)": 174.96316732449944,
        "Satellite Name": "Starlink Shell 1 787",
        "Satellite Number": 787,
        "Semi-Major Axis(m)": 6931778.249405717,
        "Time(s)": 710
    },
    {
        "Altitude(m)": 561978.6715833256,
        "Argument of Periapsis(deg)": 0.025097650524809053,
        "Eccentricity": 0.0,
        "Inclination(deg)": 53.0,
        "Latitude(deg)": -28.68143544081552,
        "Longitude(deg)": 47.78111627301749,
        "Mean Anomaly(deg)": -36.68635334391652,
        "RAAN(deg)": 174.96264855442197,
        "Satellite Name": "Starlink Shell 1 787",
        "Satellite Number": 787,
        "Semi-Major Axis(m)": 6931778.249405717,
        "Time(s)": 720
    },
    {
        "Altitude(m)": 561804.3859271783,
        "Argument of Periapsis(deg)": 0.02544622900432029,
        "Eccentricity": 0.0,
        "Inclination(deg)": 53.0,
        "Latitude(deg)": -28.222726749286412,
        "Longitude(deg)": 48.22547488300571,
        "Mean Anomaly(deg)": -36.05952214035985,
        "RAAN(deg)": 174.96212978434448,
        "Satellite Name": "Starlink Shell 1 787",
        "Satellite Number": 787,
        "Semi-Major Axis(m)": 6931778.249405717,
        "Time(s)": 730
    },
    {
        "Altitude(m)": 561630.5181692336,
        "Argument of Periapsis(deg)": 0.02579480748383153,
        "Eccentricity": 0.0,
        "Inclination(deg)": 53.0,
        "Latitude(deg)": -27.762263998009175,
        "Longitude(deg)": 48.66570969070344,
        "Mean Anomaly(deg)": -35.432690936803105,
        "RAAN(deg)": 174.96161101426702,
        "Satellite Name": "Starlink Shell 1 787",
        "Satellite Number": 787,
        "Semi-Major Axis(m)": 6931778.249405717,
        "Time(s)": 740
    },
    {
        "Altitude(m)": 561457.1326559143,
        "Argument of Periapsis(deg)": 0.026143385963342765,
        "Eccentricity": 0.0,
        "Inclination(deg)": 53.0,
        "Latitude(deg)": -27.300093949153748,
        "Longitude(deg)": 49.10191914310815,
        "Mean Anomaly(deg)": -34.80585973324636,
        "RAAN(deg)": 174.96109224418956,
        "Satellite Name": "Starlink Shell 1 787",
        "Satellite Number": 787,
        "Semi-Major Axis(m)": 6931778.249405717,
        "Time(s)": 750
    }
]